{
  "links" : {
    "next" : "https://api.nasa.gov/neo/rest/v1/feed?start_date=2003-11-09&end_date=2003-11-09&detailed=true&api_key=t0TVs3DtDT2H8Oy2Zy8m2eVrNsAVKAexjcZXUckd",
    "prev" : "https://api.nasa.gov/neo/rest/v1/feed?start_date=2003-11-07&end_date=2003-11-07&detailed=true&api_key=t0TVs3DtDT2H8Oy2Zy8m2eVrNsAVKAexjcZXUckd",
    "self" : "https://api.nasa.gov/neo/rest/v1/feed?start_date=2003-11-08&end_date=2003-11-08&detailed=true&api_key=t0TVs3DtDT2H8Oy2Zy8m2eVrNsAVKAexjcZXUckd"
  },
  "element_count" : 2,
  "near_earth_objects" : {
    "2003-11-08" : [ {
      "links" : {
        "self" : "https://api.nasa.gov/neo/rest/v1/neo/3476774?api_key=t0TVs3DtDT2H8Oy2Zy8m2eVrNsAVKAexjcZXUckd"
      },
      "neo_reference_id" : "3476774",
      "name" : "(2009 WA)",
      "nasa_jpl_url" : "http://ssd.jpl.nasa.gov/sbdb.cgi?sstr=3476774",
      "absolute_magnitude_h" : 21.2,
      "estimated_diameter" : {
        "kilometers" : {
          "estimated_diameter_min" : 0.1529519353,
          "estimated_diameter_max" : 0.3420109247
        },
        "meters" : {
          "estimated_diameter_min" : 152.9519353442,
          "estimated_diameter_max" : 342.0109247198
        },
        "miles" : {
          "estimated_diameter_min" : 0.095039897,
          "estimated_diameter_max" : 0.2125156703
        },
        "feet" : {
          "estimated_diameter_min" : 501.8108275547,
          "estimated_diameter_max" : 1122.0831222578
        }
      },
      "is_potentially_hazardous_asteroid" : false,
      "close_approach_data" : [ {
        "close_approach_date" : "2003-11-08",
        "epoch_date_close_approach" : 1068278400000,
        "relative_velocity" : {
          "kilometers_per_second" : "17.4558902243",
          "kilometers_per_hour" : "62841.2048075948",
          "miles_per_hour" : "39047.080842808"
        },
        "miss_distance" : {
          "astronomical" : "0.1813475785",
          "lunar" : "70.5442047119",
          "kilometers" : "27129212",
          "miles" : "16857310"
        },
        "orbiting_body" : "Earth"
      } ],
      "orbital_data" : {
        "orbit_id" : "19",
        "orbit_determination_date" : "2017-04-06 08:59:11",
        "orbit_uncertainty" : "1",
        "minimum_orbit_intersection" : ".0704208",
        "jupiter_tisserand_invariant" : "5.384",
        "epoch_osculation" : "2458000.5",
        "eccentricity" : ".1447439232808042",
        "semi_major_axis" : "1.135689488077611",
        "inclination" : "29.84317036312066",
        "ascending_node_longitude" : "47.5551660030327",
        "orbital_period" : "442.0667348497929",
        "perihelion_distance" : ".9713053359444894",
        "perihelion_argument" : "71.15228489359571",
        "aphelion_distance" : "1.300073640210733",
        "perihelion_time" : "2457873.884153338358",
        "mean_anomaly" : "103.110460943593",
        "mean_motion" : ".8143566833236664",
        "equinox" : "J2000"
      }
    }, {
      "links" : {
        "self" : "https://api.nasa.gov/neo/rest/v1/neo/3765021?api_key=t0TVs3DtDT2H8Oy2Zy8m2eVrNsAVKAexjcZXUckd"
      },
      "neo_reference_id" : "3765021",
      "name" : "(2016 XJ)",
      "nasa_jpl_url" : "http://ssd.jpl.nasa.gov/sbdb.cgi?sstr=3765021",
      "absolute_magnitude_h" : 27.4,
      "estimated_diameter" : {
        "kilometers" : {
          "estimated_diameter_min" : 0.0088014652,
          "estimated_diameter_max" : 0.0196806745
        },
        "meters" : {
          "estimated_diameter_min" : 8.801465209,
          "estimated_diameter_max" : 19.6806745089
        },
        "miles" : {
          "estimated_diameter_min" : 0.0054689752,
          "estimated_diameter_max" : 0.0122290004
        },
        "feet" : {
          "estimated_diameter_min" : 28.8761991163,
          "estimated_diameter_max" : 64.5691441559
        }
      },
      "is_potentially_hazardous_asteroid" : false,
      "close_approach_data" : [ {
        "close_approach_date" : "2003-11-08",
        "epoch_date_close_approach" : 1068278400000,
        "relative_velocity" : {
          "kilometers_per_second" : "8.9497340988",
          "kilometers_per_hour" : "32219.0427558331",
          "miles_per_hour" : "20019.6602057008"
        },
        "miss_distance" : {
          "astronomical" : "0.1807200441",
          "lunar" : "70.3000946045",
          "kilometers" : "27035334",
          "miles" : "16798978"
        },
        "orbiting_body" : "Earth"
      } ],
      "orbital_data" : {
        "orbit_id" : "3",
        "orbit_determination_date" : "2017-04-06 08:21:42",
        "orbit_uncertainty" : "6",
        "minimum_orbit_intersection" : ".0125843",
        "jupiter_tisserand_invariant" : "5.041",
        "epoch_osculation" : "2458000.5",
        "eccentricity" : ".2234865019161078",
        "semi_major_axis" : "1.27495424879004",
        "inclination" : "6.212123970448961",
        "ascending_node_longitude" : "249.2832966596537",
        "orbital_period" : "525.8239069563227",
        "perihelion_distance" : ".9900191836248753",
        "perihelion_argument" : "197.6976896420867",
        "aphelion_distance" : "1.559889313955206",
        "perihelion_time" : "2457739.629137522814",
        "mean_anomaly" : "178.602587766303",
        "mean_motion" : ".6846398485071225",
        "equinox" : "J2000"
      }
    } ]
  }
}